{
  "type": "FeatureCollection",
  "features": [
    {
      "type": "Feature",
      "properties": {
        "norad_id": 36652,
        "name": "FENGYUN 1C DEB",
        "group": "fengyun-1c-debris",
        "lat": -56.42614117620154,
        "lon": -128.3638831668286,
        "alt_km": 844.4238275688876,
        "timestamp": "2025-12-09T05:43:21.014741+00:00",
        "meta_object_name": "FENGYUN 1C DEB",
        "meta_object_id": "1999-025DXW",
        "meta_epoch": "2025-12-08T16:47:36.155328",
        "meta_mean_motion": 14.22771153,
        "meta_eccentricity": 0.0050681,
        "meta_inclination": 98.9412,
        "meta_ra_of_asc_node": 64.8103,
        "meta_arg_of_pericenter": 5.1992,
        "meta_mean_anomaly": 354.9701,
        "meta_ephemeris_type": 0,
        "meta_classification_type": "U",
        "meta_norad_cat_id": 36652,
        "meta_element_set_no": 999,
        "meta_rev_at_epoch": 64267,
        "meta_bstar": 0.002587,
        "meta_mean_motion_dot": 5.836e-05,
        "meta_mean_motion_ddot": 0,
        "tle_line1": "1 36652U 99025DXW 25342.69972402  .00005836  00000+0  25870-2 0  9997",
        "tle_line2": "2 36652  98.9412  64.8103 0050681   5.1992 354.9701 14.22771153642672"
      },
      "geometry": {
        "type": "Point",
        "coordinates": [
          -128.3638831668286,
          -56.42614117620154
        ]
      }
    },
    {
      "type": "Feature",
      "properties": {
        "norad_id": 36657,
        "name": "FENGYUN 1C DEB",
        "group": "fengyun-1c-debris",
        "lat": -60.669732997710426,
        "lon": -63.52545857140745,
        "alt_km": 754.5681946189534,
        "timestamp": "2025-12-09T05:43:21.014751+00:00",
        "meta_object_name": "FENGYUN 1C DEB",
        "meta_object_id": "1999-025DYB",
        "meta_epoch": "2025-12-08T04:02:55.491648",
        "meta_mean_motion": 14.6546844,
        "meta_eccentricity": 0.01059394,
        "meta_inclination": 99.4121,
        "meta_ra_of_asc_node": 132.4216,
        "meta_arg_of_pericenter": 80.8713,
        "meta_mean_anomaly": 280.4454,
        "meta_ephemeris_type": 0,
        "meta_classification_type": "U",
        "meta_norad_cat_id": 36657,
        "meta_element_set_no": 999,
        "meta_rev_at_epoch": 66189,
        "meta_bstar": 0.00092233572,
        "meta_mean_motion_dot": 5.362e-05,
        "meta_mean_motion_ddot": 0,
        "tle_line1": "1 36657U 99025DYB 25342.16869782  .00005362  00000+0  92234-3 0  9993",
        "tle_line2": "2 36657  99.4121 132.4216 0105939  80.8713 280.4454 14.65468440661897"
      },
      "geometry": {
        "type": "Point",
        "coordinates": [
          -63.52545857140745,
          -60.669732997710426
        ]
      }
    },
    {
      "type": "Feature",
      "properties": {
        "norad_id": 36659,
        "name": "FENGYUN 1C DEB",
        "group": "fengyun-1c-debris",
        "lat": 40.9124046930309,
        "lon": 175.1949229960427,
        "alt_km": 875.5121245760574,
        "timestamp": "2025-12-09T05:43:21.014761+00:00",
        "meta_object_name": "FENGYUN 1C DEB",
        "meta_object_id": "1999-025DYD",
        "meta_epoch": "2025-12-08T06:34:16.718304",
        "meta_mean_motion": 13.87363788,
        "meta_eccentricity": 0.01358311,
        "meta_inclination": 99.8536,
        "meta_ra_of_asc_node": 345.5157,
        "meta_arg_of_pericenter": 86.5848,
        "meta_mean_anomaly": 275.0833,
        "meta_ephemeris_type": 0,
        "meta_classification_type": "U",
        "meta_norad_cat_id": 36659,
        "meta_element_set_no": 999,
        "meta_rev_at_epoch": 60363,
        "meta_bstar": 0.0010441294,
        "meta_mean_motion_dot": 1.275e-05,
        "meta_mean_motion_ddot": 0,
        "tle_line1": "1 36659U 99025DYD 25342.27380461  .00001275  00000+0  10441-2 0  9997",
        "tle_line2": "2 36659  99.8536 345.5157 0135831  86.5848 275.0833 13.87363788603631"
      },
      "geometry": {
        "type": "Point",
        "coordinates": [
          175.1949229960427,
          40.9124046930309
        ]
      }
    },
    {
      "type": "Feature",
      "properties": {
        "norad_id": 36664,
        "name": "FENGYUN 1C DEB",
        "group": "fengyun-1c-debris",
        "lat": 36.78926514111042,
        "lon": 1.4497512580752268,
        "alt_km": 789.7473378834156,
        "timestamp": "2025-12-09T05:43:21.014771+00:00",
        "meta_object_name": "FENGYUN 1C DEB",
        "meta_object_id": "1999-025DYJ",
        "meta_epoch": "2025-12-08T19:23:09.464352",
        "meta_mean_motion": 14.17954271,
        "meta_eccentricity": 0.0173543,
        "meta_inclination": 98.6046,
        "meta_ra_of_asc_node": 7.5336,
        "meta_arg_of_pericenter": 110.9753,
        "meta_mean_anomaly": 251.0088,
        "meta_ephemeris_type": 0,
        "meta_classification_type": "U",
        "meta_norad_cat_id": 36664,
        "meta_element_set_no": 999,
        "meta_rev_at_epoch": 63695,
        "meta_bstar": 0.00015547,
        "meta_mean_motion_dot": 3.28e-06,
        "meta_mean_motion_ddot": 0,
        "tle_line1": "1 36664U 99025DYJ 25342.80774843  .00000328  00000+0  15547-3 0  9994",
        "tle_line2": "2 36664  98.6046   7.5336 0173543 110.9753 251.0088 14.17954271636957"
      },
      "geometry": {
        "type": "Point",
        "coordinates": [
          1.4497512580752268,
          36.78926514111042
        ]
      }
    },
    {
      "type": "Feature",
      "properties": {
        "norad_id": 36668,
        "name": "FENGYUN 1C DEB",
        "group": "fengyun-1c-debris",
        "lat": 58.02878670836883,
        "lon": -20.312125700272517,
        "alt_km": 872.3126704877313,
        "timestamp": "2025-12-09T05:43:21.014782+00:00",
        "meta_object_name": "FENGYUN 1C DEB",
        "meta_object_id": "1999-025DYN",
        "meta_epoch": "2025-12-06T06:11:01.660704",
        "meta_mean_motion": 14.15370728,
        "meta_eccentricity": 0.00512171,
        "meta_inclination": 98.6104,
        "meta_ra_of_asc_node": 350.8586,
        "meta_arg_of_pericenter": 244.8054,
        "meta_mean_anomaly": 114.7804,
        "meta_ephemeris_type": 0,
        "meta_classification_type": "U",
        "meta_norad_cat_id": 36668,
        "meta_element_set_no": 999,
        "meta_rev_at_epoch": 57326,
        "meta_bstar": 0.0010743762,
        "meta_mean_motion_dot": 2.078e-05,
        "meta_mean_motion_ddot": 0,
        "tle_line1": "1 36668U 99025DYN 25340.25765811  .00002078  00000+0  10744-2 0  9997",
        "tle_line2": "2 36668  98.6104 350.8586 0051217 244.8054 114.7804 14.15370728573263"
      },
      "geometry": {
        "type": "Point",
        "coordinates": [
          -20.312125700272517,
          58.02878670836883
        ]
      }
    },
    {
      "type": "Feature",
      "properties": {
        "norad_id": 36678,
        "name": "FENGYUN 1C DEB",
        "group": "fengyun-1c-debris",
        "lat": -34.67848213589153,
        "lon": 139.93380348816783,
        "alt_km": 863.4155775379659,
        "timestamp": "2025-12-09T05:43:21.014792+00:00",
        "meta_object_name": "FENGYUN 1C DEB",
        "meta_object_id": "1999-025DYY",
        "meta_epoch": "2025-11-26T04:26:16.761408",
        "meta_mean_motion": 14.37944691,
        "meta_eccentricity": 0.01523469,
        "meta_inclination": 98.2901,
        "meta_ra_of_asc_node": 313.1233,
        "meta_arg_of_pericenter": 42.409,
        "meta_mean_anomaly": 318.8754,
        "meta_ephemeris_type": 0,
        "meta_classification_type": "U",
        "meta_norad_cat_id": 36678,
        "meta_element_set_no": 999,
        "meta_rev_at_epoch": 64751,
        "meta_bstar": 0.00045851479,
        "meta_mean_motion_dot": 1.539e-05,
        "meta_mean_motion_ddot": 0,
        "tle_line1": "1 36678U 99025DYY 25330.18491622  .00001539  00000+0  45851-3 0  9994",
        "tle_line2": "2 36678  98.2901 313.1233 0152346  42.4090 318.8754 14.37944691647514"
      },
      "geometry": {
        "type": "Point",
        "coordinates": [
          139.93380348816783,
          -34.67848213589153
        ]
      }
    },
    {
      "type": "Feature",
      "properties": {
        "norad_id": 36679,
        "name": "FENGYUN 1C DEB",
        "group": "fengyun-1c-debris",
        "lat": 81.11127754163086,
        "lon": -104.52706656634028,
        "alt_km": 809.8035885773461,
        "timestamp": "2025-12-09T05:43:21.014803+00:00",
        "meta_object_name": "FENGYUN 1C DEB",
        "meta_object_id": "1999-025DYZ",
        "meta_epoch": "2025-12-02T05:45:43.795008",
        "meta_mean_motion": 14.04609463,
        "meta_eccentricity": 0.0085974,
        "meta_inclination": 98.8351,
        "meta_ra_of_asc_node": 332.6471,
        "meta_arg_of_pericenter": 122.6149,
        "meta_mean_anomaly": 238.3353,
        "meta_ephemeris_type": 0,
        "meta_classification_type": "U",
        "meta_norad_cat_id": 36679,
        "meta_element_set_no": 999,
        "meta_rev_at_epoch": 24401,
        "meta_bstar": 0.00048108,
        "meta_mean_motion_dot": 7.53e-06,
        "meta_mean_motion_ddot": 0,
        "tle_line1": "1 36679U 99025DYZ 25336.24009022  .00000753  00000+0  48108-3 0  9992",
        "tle_line2": "2 36679  98.8351 332.6471 0085974 122.6149 238.3353 14.04609463244016"
      },
      "geometry": {
        "type": "Point",
        "coordinates": [
          -104.52706656634028,
          81.11127754163086
        ]
      }
    }
  ]
}